[{"OBJECT_NAME":"STARLINK-2550","OBJECT_ID":"2021-036T","EPOCH":"2026-03-09T08:01:50.000736","MEAN_MOTION":15.30213398,"ECCENTRICITY":0.00014405,"INCLINATION":53.1614,"RA_OF_ASC_NODE":77.0573,"ARG_OF_PERICENTER":84.7254,"MEAN_ANOMALY":275.3911,"EPHEMERIS_TYPE":0,"CLASSIFICATION_TYPE":"U","NORAD_CAT_ID":48293,"ELEMENT_SET_NO":999,"REV_AT_EPOCH":26835,"BSTAR":0.00037817273,"MEAN_MOTION_DOT":0.00010862,"MEAN_MOTION_DDOT":0},{"OBJECT_NAME":"OBJECT AL","OBJECT_ID":"2023-085AL","EPOCH":"2026-03-09T22:26:04.970400","MEAN_MOTION":15.31857284,"ECCENTRICITY":0.000802,"INCLINATION":97.4839,"RA_OF_ASC_NODE":180.0127,"ARG_OF_PERICENTER":78.7242,"MEAN_ANOMALY":281.49,"EPHEMERIS_TYPE":0,"CLASSIFICATION_TYPE":"U","NORAD_CAT_ID":57038,"ELEMENT_SET_NO":999,"REV_AT_EPOCH":15154,"BSTAR":0.0006591637,"MEAN_MOTION_DOT":0.00020246,"MEAN_MOTION_DDOT":0}]
